SL-14 R/B               
1 16792U 86046B   25349.94781628  .00000547  00000+0  60285-4 0  9997
2 16792  82.4809 159.2841 0024017 141.9901 218.3016 14.85488113113972
SL-14 R/B               
1 16882U 86055B   25349.60178017  .00000460  00000+0  50423-4 0  9999
2 16882  82.5201 205.6837 0017519 249.1270 132.7304 14.85533479106886
AJISAI (EGS)            
1 16908U 86061A   25349.94710862 -.00000082  00000+0  11123-3 0  9996
2 16908  50.0113 350.8547 0011302  73.9700 318.5443 12.44514343457578
COSMOS 1812             
1 17295U 87003A   25349.90546382  .00088646  00000+0  56361-3 0  9997
2 17295  82.4866 288.5874 0007117  82.0882 278.1191 15.76139668131158
SL-14 R/B               
1 17567U 87024B   25349.94424758  .00000515  00000+0  56015-4 0  9994
2 17567  82.5274 171.4441 0018355 173.5571 186.5885 14.86027033 75691
COSMOS 1833             
1 17589U 87027A   25349.83259226  .00000186  00000+0  12516-3 0  9996
2 17589  70.9140 142.2752 0022653 327.4076  32.5645 14.13022903998469
SL-16 R/B               
1 17590U 87027B   25349.69644918  .00000179  00000+0  11264-3 0  9999
2 17590  71.0032  93.4879 0007309 256.1373 103.8938 14.17152960  3442
SL-14 R/B               
1 17912U 87038B   25349.82880603  .00000446  00000+0  48892-4 0  9992
2 17912  82.5015  15.7912 0020890  82.6752 277.6837 14.85263974 66783
COSMOS 1844             
1 17973U 87041A   25349.95636070  .00000073  00000+0  62765-4 0  9995
2 17973  70.8966 210.7872 0029985 152.0094 208.2648 14.14526367991745
SL-14 R/B               
1 18153U 87055B   25349.68541759  .00000474  00000+0  51979-4 0  9990
2 18153  82.4999  68.2125 0019267 292.9073  67.0109 14.85524250 57463
COSMOS 1867             
1 18187U 87060A   25349.88639662  .00000003  00000+0  38671-4 0  9998
2 18187  65.0088 181.3908 0013619 271.4367  88.5157 14.31486577  7944
SL-14 R/B               
1 18749U 88001B   25349.94466334  .00000498  00000+0  54854-4 0  9998
2 18749  82.5134 274.1329 0018764 150.8079 209.4190 14.85427394 29595
