CCSDS_OMM_VERS = 2.0
CREATION_DATE  = 
ORIGINATOR     = 

OBJECT_NAME    = SL-14 R/B
OBJECT_ID      = 1986-046B
CENTER_NAME    = EARTH
REF_FRAME      = TEME
TIME_SYSTEM    = UTC
MEAN_ELEMENT_THEORY = SGP/SGP4

EPOCH          = 2025-12-15T22:44:51.326592
MEAN_MOTION    = 14.85488113
ECCENTRICITY   = .00240172
INCLINATION    = 82.4809
RA_OF_ASC_NODE = 159.2841
ARG_OF_PERICENTER = 141.9901
MEAN_ANOMALY   = 218.3016

EPHEMERIS_TYPE = 0
CLASSIFICATION_TYPE = U
NORAD_CAT_ID   = 16792
ELEMENT_SET_NO = 999
REV_AT_EPOCH   = 11397
BSTAR          = .60284529E-4
MEAN_MOTION_DOT = .547E-5
MEAN_MOTION_DDOT = 0

CCSDS_OMM_VERS = 2.0
CREATION_DATE  = 
ORIGINATOR     = 

OBJECT_NAME    = SL-14 R/B
OBJECT_ID      = 1986-055B
CENTER_NAME    = EARTH
REF_FRAME      = TEME
TIME_SYSTEM    = UTC
MEAN_ELEMENT_THEORY = SGP/SGP4

EPOCH          = 2025-12-15T14:26:33.806688
MEAN_MOTION    = 14.85533479
ECCENTRICITY   = .00175198
INCLINATION    = 82.5201
RA_OF_ASC_NODE = 205.6837
ARG_OF_PERICENTER = 249.1270
MEAN_ANOMALY   = 132.7304

EPHEMERIS_TYPE = 0
CLASSIFICATION_TYPE = U
NORAD_CAT_ID   = 16882
ELEMENT_SET_NO = 999
REV_AT_EPOCH   = 10688
BSTAR          = .50422536E-4
MEAN_MOTION_DOT = .46E-5
MEAN_MOTION_DDOT = 0

CCSDS_OMM_VERS = 2.0
CREATION_DATE  = 
ORIGINATOR     = 

OBJECT_NAME    = AJISAI (EGS)
OBJECT_ID      = 1986-061A
CENTER_NAME    = EARTH
REF_FRAME      = TEME
TIME_SYSTEM    = UTC
MEAN_ELEMENT_THEORY = SGP/SGP4

EPOCH          = 2025-12-15T22:43:50.184768
MEAN_MOTION    = 12.44514343
ECCENTRICITY   = .00113027
INCLINATION    = 50.0113
RA_OF_ASC_NODE = 350.8547
ARG_OF_PERICENTER = 73.9700
MEAN_ANOMALY   = 318.5443

EPHEMERIS_TYPE = 0
CLASSIFICATION_TYPE = U
NORAD_CAT_ID   = 16908
ELEMENT_SET_NO = 999
REV_AT_EPOCH   = 45757
BSTAR          = .11122615E-3
MEAN_MOTION_DOT = -.82E-6
MEAN_MOTION_DDOT = 0

CCSDS_OMM_VERS = 2.0
CREATION_DATE  = 
ORIGINATOR     = 

OBJECT_NAME    = COSMOS 1812
OBJECT_ID      = 1987-003A
CENTER_NAME    = EARTH
REF_FRAME      = TEME
TIME_SYSTEM    = UTC
MEAN_ELEMENT_THEORY = SGP/SGP4

EPOCH          = 2025-12-15T21:43:52.074048
MEAN_MOTION    = 15.76139668
ECCENTRICITY   = .00071178
INCLINATION    = 82.4866
RA_OF_ASC_NODE = 288.5874
ARG_OF_PERICENTER = 82.0882
MEAN_ANOMALY   = 278.1191

EPHEMERIS_TYPE = 0
CLASSIFICATION_TYPE = U
NORAD_CAT_ID   = 17295
ELEMENT_SET_NO = 999
REV_AT_EPOCH   = 13115
BSTAR          = .56360603E-3
MEAN_MOTION_DOT = .88646E-3
MEAN_MOTION_DDOT = 0

CCSDS_OMM_VERS = 2.0
CREATION_DATE  = 
ORIGINATOR     = 

OBJECT_NAME    = SL-14 R/B
OBJECT_ID      = 1987-024B
CENTER_NAME    = EARTH
REF_FRAME      = TEME
TIME_SYSTEM    = UTC
MEAN_ELEMENT_THEORY = SGP/SGP4

EPOCH          = 2025-12-15T22:39:42.990912
MEAN_MOTION    = 14.86027033
ECCENTRICITY   = .00183554
INCLINATION    = 82.5274
RA_OF_ASC_NODE = 171.4441
ARG_OF_PERICENTER = 173.5571
MEAN_ANOMALY   = 186.5885

EPHEMERIS_TYPE = 0
CLASSIFICATION_TYPE = U
NORAD_CAT_ID   = 17567
ELEMENT_SET_NO = 999
REV_AT_EPOCH   = 7569
BSTAR          = .56015448E-4
MEAN_MOTION_DOT = .515E-5
MEAN_MOTION_DDOT = 0

CCSDS_OMM_VERS = 2.0
CREATION_DATE  = 
ORIGINATOR     = 

OBJECT_NAME    = COSMOS 1833
OBJECT_ID      = 1987-027A
CENTER_NAME    = EARTH
REF_FRAME      = TEME
TIME_SYSTEM    = UTC
MEAN_ELEMENT_THEORY = SGP/SGP4

EPOCH          = 2025-12-15T19:58:55.971264
MEAN_MOTION    = 14.13022903
ECCENTRICITY   = .00226538
INCLINATION    = 70.9140
RA_OF_ASC_NODE = 142.2752
ARG_OF_PERICENTER = 327.4076
MEAN_ANOMALY   = 32.5645

EPHEMERIS_TYPE = 0
CLASSIFICATION_TYPE = U
NORAD_CAT_ID   = 17589
ELEMENT_SET_NO = 999
REV_AT_EPOCH   = 99846
BSTAR          = .12516476E-3
MEAN_MOTION_DOT = .186E-5
MEAN_MOTION_DDOT = 0

CCSDS_OMM_VERS = 2.0
CREATION_DATE  = 
ORIGINATOR     = 

OBJECT_NAME    = SL-16 R/B
OBJECT_ID      = 1987-027B
CENTER_NAME    = EARTH
REF_FRAME      = TEME
TIME_SYSTEM    = UTC
MEAN_ELEMENT_THEORY = SGP/SGP4

EPOCH          = 2025-12-15T16:42:53.209152
MEAN_MOTION    = 14.17152960
ECCENTRICITY   = .00073094
INCLINATION    = 71.0032
RA_OF_ASC_NODE = 93.4879
ARG_OF_PERICENTER = 256.1373
MEAN_ANOMALY   = 103.8938

EPHEMERIS_TYPE = 0
CLASSIFICATION_TYPE = U
NORAD_CAT_ID   = 17590
ELEMENT_SET_NO = 999
REV_AT_EPOCH   = 344
BSTAR          = .11264172E-3
MEAN_MOTION_DOT = .179E-5
MEAN_MOTION_DDOT = 0

CCSDS_OMM_VERS = 2.0
CREATION_DATE  = 
ORIGINATOR     = 

OBJECT_NAME    = SL-14 R/B
OBJECT_ID      = 1987-038B
CENTER_NAME    = EARTH
REF_FRAME      = TEME
TIME_SYSTEM    = UTC
MEAN_ELEMENT_THEORY = SGP/SGP4

EPOCH          = 2025-12-15T19:53:28.840992
MEAN_MOTION    = 14.85263974
ECCENTRICITY   = .00208906
INCLINATION    = 82.5015
RA_OF_ASC_NODE = 15.7912
ARG_OF_PERICENTER = 82.6752
MEAN_ANOMALY   = 277.6837

EPHEMERIS_TYPE = 0
CLASSIFICATION_TYPE = U
NORAD_CAT_ID   = 17912
ELEMENT_SET_NO = 999
REV_AT_EPOCH   = 6678
BSTAR          = .48891955E-4
MEAN_MOTION_DOT = .446E-5
MEAN_MOTION_DDOT = 0

CCSDS_OMM_VERS = 2.0
CREATION_DATE  = 
ORIGINATOR     = 

OBJECT_NAME    = COSMOS 1844
OBJECT_ID      = 1987-041A
CENTER_NAME    = EARTH
REF_FRAME      = TEME
TIME_SYSTEM    = UTC
MEAN_ELEMENT_THEORY = SGP/SGP4

EPOCH          = 2025-12-15T22:57:09.564480
MEAN_MOTION    = 14.14526367
ECCENTRICITY   = .00299853
INCLINATION    = 70.8966
RA_OF_ASC_NODE = 210.7872
ARG_OF_PERICENTER = 152.0094
MEAN_ANOMALY   = 208.2648

EPHEMERIS_TYPE = 0
CLASSIFICATION_TYPE = U
NORAD_CAT_ID   = 17973
ELEMENT_SET_NO = 999
REV_AT_EPOCH   = 99174
BSTAR          = .62764892E-4
MEAN_MOTION_DOT = .73E-6
MEAN_MOTION_DDOT = 0

CCSDS_OMM_VERS = 2.0
CREATION_DATE  = 
ORIGINATOR     = 

OBJECT_NAME    = SL-14 R/B
OBJECT_ID      = 1987-055B
CENTER_NAME    = EARTH
REF_FRAME      = TEME
TIME_SYSTEM    = UTC
MEAN_ELEMENT_THEORY = SGP/SGP4

EPOCH          = 2025-12-15T16:27:00.079776
MEAN_MOTION    = 14.85524250
ECCENTRICITY   = .00192679
INCLINATION    = 82.4999
RA_OF_ASC_NODE = 68.2125
ARG_OF_PERICENTER = 292.9073
MEAN_ANOMALY   = 67.0109

EPHEMERIS_TYPE = 0
CLASSIFICATION_TYPE = U
NORAD_CAT_ID   = 18153
ELEMENT_SET_NO = 999
REV_AT_EPOCH   = 5746
BSTAR          = .51978794E-4
MEAN_MOTION_DOT = .474E-5
MEAN_MOTION_DDOT = 0

CCSDS_OMM_VERS = 2.0
CREATION_DATE  = 
ORIGINATOR     = 

OBJECT_NAME    = COSMOS 1867
OBJECT_ID      = 1987-060A
CENTER_NAME    = EARTH
REF_FRAME      = TEME
TIME_SYSTEM    = UTC
MEAN_ELEMENT_THEORY = SGP/SGP4

EPOCH          = 2025-12-15T21:16:24.667968
MEAN_MOTION    = 14.31486577
ECCENTRICITY   = .00136193
INCLINATION    = 65.0088
RA_OF_ASC_NODE = 181.3908
ARG_OF_PERICENTER = 271.4367
MEAN_ANOMALY   = 88.5157

EPHEMERIS_TYPE = 0
CLASSIFICATION_TYPE = U
NORAD_CAT_ID   = 18187
ELEMENT_SET_NO = 999
REV_AT_EPOCH   = 794
BSTAR          = .3867141E-4
MEAN_MOTION_DOT = .3E-7
MEAN_MOTION_DDOT = 0

CCSDS_OMM_VERS = 2.0
CREATION_DATE  = 
ORIGINATOR     = 

OBJECT_NAME    = SL-14 R/B
OBJECT_ID      = 1988-001B
CENTER_NAME    = EARTH
REF_FRAME      = TEME
TIME_SYSTEM    = UTC
MEAN_ELEMENT_THEORY = SGP/SGP4

EPOCH          = 2025-12-15T22:40:18.912576
MEAN_MOTION    = 14.85427394
ECCENTRICITY   = .00187643
INCLINATION    = 82.5134
RA_OF_ASC_NODE = 274.1329
ARG_OF_PERICENTER = 150.8079
MEAN_ANOMALY   = 209.4190

EPHEMERIS_TYPE = 0
CLASSIFICATION_TYPE = U
NORAD_CAT_ID   = 18749
ELEMENT_SET_NO = 999
REV_AT_EPOCH   = 2959
BSTAR          = .54854218E-4
MEAN_MOTION_DOT = .498E-5
MEAN_MOTION_DDOT = 0

